[
    {
        "Altitude(m)": 610399.5448564005,
        "Argument of Periapsis(deg)": 0.0,
        "Eccentricity": 0.0,
        "Inclination(deg)": 60.0,
        "Latitude(deg)": 52.111379135024244,
        "Longitude(deg)": 177.58442523480636,
        "Mean Anomaly(deg)": 65.45449999999998,
        "RAAN(deg)": 229.99999999999997,
        "Satellite Name": "Test1 1016",
        "Satellite Number": 1016,
        "Semi-Major Axis(m)": 6980739.136638005,
        "Time(s)": 0
    },
    {
        "Altitude(m)": 610481.6954286705,
        "Argument of Periapsis(deg)": 0.00010418945913296404,
        "Eccentricity": 0.0,
        "Inclination(deg)": 60.0,
        "Latitude(deg)": 52.47098010712898,
        "Longitude(deg)": 178.36656378405186,
        "Mean Anomaly(deg)": 66.07460614546183,
        "RAAN(deg)": 229.99957995086024,
        "Satellite Name": "Test1 1016",
        "Satellite Number": 1016,
        "Semi-Major Axis(m)": 6980739.136638005,
        "Time(s)": 10
    }
]